CANX-4                  
1 40055U 14034C   24269.49927658  .00003431  00000+0  47493-3 0  9999
2 40055  98.3879 108.4404 0012356 227.3880 132.6288 14.78685491551372
CANX-5                  
1 40056U 14034D   24269.50378812  .00003468  00000+0  47989-3 0  9994
2 40056  98.3882 108.4536 0012360 227.5716 132.4449 14.78695966542182
UKUBE-1                 
1 40074U 14037F   24269.33016317  .00018006  00000+0  15834-2 0  9994
2 40074  98.3451 205.5957 0006877  93.9660 266.2346 14.96580164553748
BRITE-PL2 (HEWELIUSZ)   
1 40119U 14049B   24269.52639755  .00005369  00000+0  56270-3 0  9993
2 40119  97.8848   8.8148 0015937  37.8704 322.3631 14.89890964547514
AEROCUBE 5C             
1 40965U 15058B   24269.51387755  .00008597  00000+0  75173-3 0  9991
2 40965  64.7699  53.3359 0191999 277.9195  80.0162 14.84167669271923
AEROCUBE 7              
1 40966U 15058C   24269.52606058  .00011219  00000+0  93599-3 0  9990
2 40966  64.7677  46.0643 0186257 277.5406  80.4580 14.86385665272016
FOX-1A (AO-85)          
1 40967U 15058D   24269.48004671  .00008381  00000+0  74883-3 0  9990
2 40967  64.7770  67.6807 0190534 273.6809  84.2530 14.83580643 19868
SINOD-D 1               
1 40968U 15058E   24269.50815050  .00011860  00000+0  10064-2 0  9991
2 40968  64.7778  59.3283 0184412 272.6488  85.3525 14.85960568 22717
SNAP-3 ALICE            
1 40970U 15058G   24269.55449602  .00041317  00000+0  25271-2 0  9991
2 40970  64.7713   9.9414 0150144 270.9677  87.4241 15.01023544 20823
LMRST-SAT               
1 40971U 15058H   24269.86366177  .00008855  00000+0  78792-3 0  9998
2 40971  64.7767  62.0491 0191901 274.9868  82.9360 14.83517073 19925
SNAP-3 EDDIE            
1 40972U 15058J   24269.53943160  .00041861  00000+0  25275-2 0  9997
2 40972  64.7688   3.1879 0150405 271.9682  86.4217 15.01434857 22922
PROPCUBE 3              
1 40973U 15058K   24269.69268246  .00011102  00000+0  94185-3 0  9992
2 40973  64.7714  49.4142 0188192 276.4126  81.5585 14.85545840 20957
BISONSAT                
1 40974U 15058L   24269.47231212  .00024496  00000+0  17235-2 0  9992
2 40974  64.7686  20.5692 0166443 274.2779  83.9332 14.94457355 20736
SNAP-3 JIMI             
1 40975U 15058M   24269.61741104  .00016731  00000+0  13109-2 0  9994
2 40975  64.7703  36.0557 0178983 275.4443  82.6275 14.89304500 19975
PROPCUBE 1 (FLORA)      
1 40976U 15058N   24269.86970360  .00007648  00000+0  70956-3 0  9991
2 40976  64.7752  78.0175 0190275 276.2203  81.7260 14.82310933 22713
SINOD-D 3               
1 40977U 15058P   24269.51162215  .00010263  00000+0  90561-3 0  9997
2 40977  64.7741  71.3882 0184037 275.5000  82.5143 14.84677184 20914
HORYU-4                 
1 41340U 16012D   24269.66038085  .00028966  00000+0  12744-2 0  9991
2 41340  31.0025  38.9587 0007176 281.6981  78.2855 15.20680341473437
RAVAN                   
1 41849U 16067B   24269.46610648  .00022467  00000+0  11204-2 0  9994
2 41849  98.0671  93.3063 0012522  49.2426 310.9890 15.17482479431176
CELTEE 1                
1 41850U 16067C   24269.72718998  .00013253  00000+0  84925-3 0  9996
2 41850  98.1092  84.5883 0000985 171.5196 188.6048 15.08671902430570
OPTICUBE 04             
1 41851U 16067D   24269.72883962  .00007320  00000+0  53237-3 0  9991
2 41851  98.0864  79.0182 0019131  80.6512 279.6875 15.03995964430349
AEROCUBE 8D             
1 41852U 16067E   24269.42553094  .00016137  00000+0  98775-3 0  9991
2 41852  98.1146  84.3081 0005437 127.4385 232.7338 15.10291191430515
AEROCUBE 8C             
1 41853U 16067F   24269.44127026  .00017314  00000+0  10592-2 0  9994
2 41853  98.0964  82.6599 0007754  63.9506 296.2519 15.10281103430508
PROMETHEUS 2-1          
1 41854U 16067G   24269.46097344  .00040386  00000+0  17235-2 0  9992
2 41854  98.1016  91.8792 0011080  75.1240 285.1221 15.22734175430964
PROMETHEUS 2-3          
1 41855U 16067H   24269.46032418  .00040980  00000+0  17531-2 0  9993
2 41855  98.0953  91.2697 0009478  85.5683 274.6634 15.22662645430969
CORVUS BC2              
1 42846U 17042X   24269.43171893  .00008357  00000+0  69169-3 0  9993
2 42846  97.3751  89.0533 0008308  84.2582 275.9589 14.99093362392458
CORVUS BC1              
1 42847U 17042Y   24269.44916428  .00009252  00000+0  76177-3 0  9998
2 42847  97.3750  89.4833 0009732  84.3327 275.9006 14.99257961392478
MIRATA                  
1 43015U 17073C   24269.61711413  .00047243  00000+0  19038-2 0  9990
2 43015  97.5774 153.5522 0148651 276.3039  82.1280 15.15035286371493
MAKERSAT 0              
1 43016U 17073D   24268.88621727  .00026407  00000+0  13913-2 0  9992
2 43016  97.5544 145.2448 0180717 304.8944  53.5409 15.02505234370850
GOMX-4B                 
1 43196U 18015E   24269.78275007  .00546655  13193-3  11300-2 0  9995
2 43196  97.5952  92.9716 0007632 273.0407  86.9997 15.99166530371360
SIRION PATHFINDER-2     
1 43759U 18099B   24269.11878140  .00009861  00000+0  70547-3 0  9997
2 43759  97.5169 322.5093 0009629 311.2064  48.8332 15.04598552317524
CORVUS BC4              
1 43767U 18099K   24269.73532054  .00009841  00000+0  72046-3 0  9999
2 43767  97.5028 320.0001 0010026  14.9574 345.1946 15.03726023317490
MOVE-II                 
1 43780U 18099Y   24269.42965141  .00052651  00000+0  22208-2 0  9998
2 43780  97.5097 331.8726 0004259 355.8071   4.3129 15.23105476318140
SPACEBEE-7              
1 43816U 18099BL  24269.42235744  .00033214  00000+0  17055-2 0  9995
2 43816  97.5373 332.1444 0007548 299.9762  60.0721 15.16404872317574
SPACEBEE-6              
1 43818U 18099BN  24269.44410501  .00113414  00000+0  31791-2 0  9999
2 43818  97.5279 339.6842 0006541 275.4482  84.6015 15.36128729318222
SHIELDS 1               
1 43850U 18104B   24269.34245896  .00034830  00000+0  80643-3 0  9999
2 43850  85.0230 214.9224 0013365  65.6916 294.5731 15.42200230321573
SONATE                  
1 44400U 19038Q   24269.26131171  .00049137  00000+0  11813-2 0  9997
2 44400  97.7170 268.3013 0017550 106.8204 253.4968 15.41004728289454
LUCKY-7                 
1 44406U 19038W   24269.48379684  .00129575  00000+0  16385-2 0  9994
2 44406  97.7014 274.5622 0014101  93.1447 267.1422 15.58971037289909
DUCHIFAT-3              
1 44854U 19089C   24269.84808861  .00037094  00000+0  15946-2 0  9997
2 44854  36.9534 155.7134 0008777 250.5979 109.3822 15.21741818263519
M2 PATHFINDER           
1 45727U 20037E   24269.73545737  .00007405  00000+0  62412-3 0  9994
2 45727  97.7829  85.7602 0011141 143.3125 216.8862 14.98434256230996
NETSAT-4                
1 46504U 20068U   24269.88525777  .00023668  00000+0  11477-2 0  9993
2 46504  97.8156 230.0112 0010647  32.8805 327.3088 15.18464799219434
NETSAT-3                
1 46505U 20068V   24269.44772871  .00022684  00000+0  11191-2 0  9995
2 46505  97.8132 228.9389 0010440  41.7148 318.4879 15.17875110219353
NETSAT-1                
1 46506U 20068W   24269.75585799  .00017498  00000+0  92270-3 0  9996
2 46506  97.8159 228.4573 0009765  50.5963 309.6131 15.15595699219345
NETSAT-2                
1 46507U 20068X   24269.70746674  .00023717  00000+0  11506-2 0  9996
2 46507  97.8137 229.4306 0009086  56.2117 303.9980 15.18460859219359
WILDTRACKCUBE-SIMBA     
1 47941U 21022K   24269.86490931  .00034036  00000+0  13131-2 0  9991
2 47941  97.4447 165.9464 0015565 141.1464 219.0897 15.26107827193794
GRBALPHA                
1 47959U 21022AD  24269.75624350  .00051415  00000+0  16052-2 0  9997
2 47959  97.4443 168.5005 0014593 129.6658 230.5874 15.32921550192779
BEESAT-8                
1 48085U 21022AP  24269.69489623  .00078660  00000+0  18000-2 0  9999
2 48085  97.4661 173.3761 0013577 114.7357 245.5305 15.42423250193318
LEDSAT                  
1 49069U 21073D   24269.17020594  .00041157  00000+0  13872-2 0  9992
2 49069  97.4270 339.9313 0015965 288.2108  71.7395 15.30494130171714
ROBUSTA-1F (MTCUBE 2)   
1 53109U 22080E   24268.07913662 -.00000003  00000+0  00000+0 0  9998
2 53109  70.1258 157.7435 0007896  66.7572 293.3919  6.42583934 51510
SITRO-AIS 5 (KATYS)     
1 57176U 23091L   24269.84014744  .00018535  00000+0  11013-2 0  9995
2 57176  97.6013 321.2706 0018088 135.4256 224.8432 15.11201587 68680
SITRO-AIS 6 (CHIRKIN)   
1 57192U 23091AC  24269.82179800  .00019401  00000+0  11512-2 0  9993
2 57192  97.6018 321.2824 0018002 134.9665 225.3028 15.11241895 68681
SITRO-AIS 8 (ANOKHIN)   
1 57193U 23091AD  24269.82910304  .00020426  00000+0  11946-2 0  9996
2 57193  97.6015 321.4162 0017604 135.9139 224.3498 15.11760375 68690
SITRO-AIS 7 (FARTUSHNIY)
1 57194U 23091AE  24269.83042430  .00019484  00000+0  11584-2 0  9994
2 57194  97.6014 321.2628 0017792 135.7364 224.5292 15.11173845 68684
SITRO-AIS 10 (BURDAEV)  
1 57199U 23091AK  24269.87045819  .00021968  00000+0  12139-2 0  9994
2 57199  97.6029 322.6744 0013284 123.5923 236.6579 15.13841705 68778
SITRO-AIS 9 (SHCHUKIN)  
1 57201U 23091AM  24269.87034275  .00022097  00000+0  12221-2 0  9998
2 57201  97.6024 322.6449 0013226 123.4815 236.7683 15.13810086 68779
SITRO-AIS 12 (SMIRENNIY)
1 57204U 23091AQ  24269.81995147  .00022090  00000+0  12150-2 0  9993
2 57204  97.6034 322.7665 0013068 118.4918 241.7631 15.14008256 68774
SITRO-AIS 11 (SHEFFER)  
1 57208U 23091AU  24269.86507225  .00021514  00000+0  11795-2 0  9992
2 57208  97.6029 322.8471 0012984 118.5855 241.6685 15.14130281 68788
ROBUSTA-1E (ENSO)       
1 58470U 23185J   24269.81695102  .00039926  00000+0  14230-2 0  9998
2 58470  97.4150 335.7618 0010053 280.3119  79.6987 15.28755734 45482
SITRO-AIS 29            
1 59052U 24039B   24269.87243070  .00059067  00000+0  16879-2 0  9992
2 59052  97.4002 231.5803 0013028 200.9372 159.1339 15.35705434 32007
